{
  "type": "FeatureCollection",
  "features": [
    {
      "type": "Feature",
      "properties": {
        "norad_id": 41330,
        "name": "COSMOS 2514 (751)",
        "group": "glo-ops",
        "lat": 15.685125432178435,
        "lon": 131.4124302037779,
        "alt_km": 19112.47563809423,
        "timestamp": "2025-12-27T06:41:31.187627+00:00",
        "meta_object_name": "COSMOS 2514 (751)",
        "meta_object_id": "2016-008A",
        "meta_epoch": "2025-12-26T03:04:28.076736",
        "meta_mean_motion": 2.13102515,
        "meta_eccentricity": 0.0011522,
        "meta_inclination": 65.126,
        "meta_ra_of_asc_node": 318.9457,
        "meta_arg_of_pericenter": 220.0095,
        "meta_mean_anomaly": 139.91,
        "meta_ephemeris_type": 0,
        "meta_classification_type": "U",
        "meta_norad_cat_id": 41330,
        "meta_element_set_no": 999,
        "meta_rev_at_epoch": 7693,
        "meta_bstar": 0,
        "meta_mean_motion_dot": -3.4e-07,
        "meta_mean_motion_ddot": 0,
        "tle_line1": "1 41330U 16008A   25360.12810274 -.00000034  00000+0  00000+0 0  9993",
        "tle_line2": "2 41330  65.1260 318.9457 0011522 220.0095 139.9100  2.13102515 76937"
      },
      "geometry": {
        "type": "Point",
        "coordinates": [
          131.4124302037779,
          15.685125432178435
        ]
      }
    },
    {
      "type": "Feature",
      "properties": {
        "norad_id": 42939,
        "name": "COSMOS 2522 (752)",
        "group": "glo-ops",
        "lat": -59.363637003449426,
        "lon": 142.49939724160015,
        "alt_km": 19129.1236155377,
        "timestamp": "2025-12-27T06:41:31.187638+00:00",
        "meta_object_name": "COSMOS 2522 (752)",
        "meta_object_id": "2017-055A",
        "meta_epoch": "2025-12-25T23:11:37.074048",
        "meta_mean_motion": 2.13102023,
        "meta_eccentricity": 0.00062782,
        "meta_inclination": 64.0768,
        "meta_ra_of_asc_node": 197.7784,
        "meta_arg_of_pericenter": 223.1458,
        "meta_mean_anomaly": 136.8589,
        "meta_ephemeris_type": 0,
        "meta_classification_type": "U",
        "meta_norad_cat_id": 42939,
        "meta_element_set_no": 999,
        "meta_rev_at_epoch": 6428,
        "meta_bstar": 0,
        "meta_mean_motion_dot": 1.1e-06,
        "meta_mean_motion_ddot": 0,
        "tle_line1": "1 42939U 17055A   25359.96640132  .00000110  00000+0  00000+0 0  9990",
        "tle_line2": "2 42939  64.0768 197.7784 0006278 223.1458 136.8589  2.13102023 64285"
      },
      "geometry": {
        "type": "Point",
        "coordinates": [
          142.49939724160015,
          -59.363637003449426
        ]
      }
    },
    {
      "type": "Feature",
      "properties": {
        "norad_id": 43508,
        "name": "COSMOS 2527 (756)",
        "group": "glo-ops",
        "lat": -38.45446444506609,
        "lon": 58.43561965631295,
        "alt_km": 19133.935982389787,
        "timestamp": "2025-12-27T06:41:31.187649+00:00",
        "meta_object_name": "COSMOS 2527 (756)",
        "meta_object_id": "2018-053A",
        "meta_epoch": "2025-12-25T22:15:18.516960",
        "meta_mean_motion": 2.13102285,
        "meta_eccentricity": 0.00091278,
        "meta_inclination": 65.4787,
        "meta_ra_of_asc_node": 79.6912,
        "meta_arg_of_pericenter": 228.9036,
        "meta_mean_anomaly": 131.0649,
        "meta_ephemeris_type": 0,
        "meta_classification_type": "U",
        "meta_norad_cat_id": 43508,
        "meta_element_set_no": 999,
        "meta_rev_at_epoch": 5858,
        "meta_bstar": 0,
        "meta_mean_motion_dot": -3e-08,
        "meta_mean_motion_ddot": 0,
        "tle_line1": "1 43508U 18053A   25359.92729765 -.00000003  00000+0  00000+0 0  9990",
        "tle_line2": "2 43508  65.4787  79.6912 0009127 228.9036 131.0649  2.13102285 58586"
      },
      "geometry": {
        "type": "Point",
        "coordinates": [
          58.43561965631295,
          -38.45446444506609
        ]
      }
    },
    {
      "type": "Feature",
      "properties": {
        "norad_id": 43687,
        "name": "COSMOS 2529 (757)",
        "group": "glo-ops",
        "lat": -52.79416241649614,
        "lon": 57.801290305802006,
        "alt_km": 19118.582067828214,
        "timestamp": "2025-12-27T06:41:31.187660+00:00",
        "meta_object_name": "COSMOS 2529 (757)",
        "meta_object_id": "2018-086A",
        "meta_epoch": "2025-12-23T05:01:04.327104",
        "meta_mean_motion": 2.13102131,
        "meta_eccentricity": 0.0006897,
        "meta_inclination": 64.2927,
        "meta_ra_of_asc_node": 198.5346,
        "meta_arg_of_pericenter": 253.659,
        "meta_mean_anomaly": 106.3281,
        "meta_ephemeris_type": 0,
        "meta_classification_type": "U",
        "meta_norad_cat_id": 43687,
        "meta_element_set_no": 999,
        "meta_rev_at_epoch": 5553,
        "meta_bstar": 0,
        "meta_mean_motion_dot": 9.5e-07,
        "meta_mean_motion_ddot": 0,
        "tle_line1": "1 43687U 18086A   25357.20907786  .00000095  00000+0  00000+0 0  9994",
        "tle_line2": "2 43687  64.2927 198.5346 0006897 253.6590 106.3281  2.13102131 55539"
      },
      "geometry": {
        "type": "Point",
        "coordinates": [
          57.801290305802006,
          -52.79416241649614
        ]
      }
    },
    {
      "type": "Feature",
      "properties": {
        "norad_id": 44299,
        "name": "COSMOS 2534 (758)",
        "group": "glo-ops",
        "lat": 14.95819053595561,
        "lon": -154.2210090582596,
        "alt_km": 19129.504198648174,
        "timestamp": "2025-12-27T06:41:31.187671+00:00",
        "meta_object_name": "COSMOS 2534 (758)",
        "meta_object_id": "2019-030A",
        "meta_epoch": "2025-12-26T02:10:04.232064",
        "meta_mean_motion": 2.13102148,
        "meta_eccentricity": 0.00086162,
        "meta_inclination": 64.3664,
        "meta_ra_of_asc_node": 198.4428,
        "meta_arg_of_pericenter": 283.8414,
        "meta_mean_anomaly": 260.9701,
        "meta_ephemeris_type": 0,
        "meta_classification_type": "U",
        "meta_norad_cat_id": 44299,
        "meta_element_set_no": 999,
        "meta_rev_at_epoch": 5123,
        "meta_bstar": 0,
        "meta_mean_motion_dot": 1.1e-06,
        "meta_mean_motion_ddot": 0,
        "tle_line1": "1 44299U 19030A   25360.09032676  .00000110  00000+0  00000+0 0  9990",
        "tle_line2": "2 44299  64.3664 198.4428 0008616 283.8414 260.9701  2.13102148 51234"
      },
      "geometry": {
        "type": "Point",
        "coordinates": [
          -154.2210090582596,
          14.95819053595561
        ]
      }
    },
    {
      "type": "Feature",
      "properties": {
        "norad_id": 44850,
        "name": "COSMOS 2544 (759)",
        "group": "glo-ops",
        "lat": -0.5681180008936194,
        "lon": 79.22417393014472,
        "alt_km": 19142.302957439966,
        "timestamp": "2025-12-27T06:41:31.187682+00:00",
        "meta_object_name": "COSMOS 2544 (759)",
        "meta_object_id": "2019-088A",
        "meta_epoch": "2025-12-25T20:55:29.447904",
        "meta_mean_motion": 2.13102067,
        "meta_eccentricity": 0.00144287,
        "meta_inclination": 65.4663,
        "meta_ra_of_asc_node": 79.5196,
        "meta_arg_of_pericenter": 250.7311,
        "meta_mean_anomaly": 109.1604,
        "meta_ephemeris_type": 0,
        "meta_classification_type": "U",
        "meta_norad_cat_id": 44850,
        "meta_element_set_no": 999,
        "meta_rev_at_epoch": 4702,
        "meta_bstar": 0,
        "meta_mean_motion_dot": -3e-08,
        "meta_mean_motion_ddot": 0,
        "tle_line1": "1 44850U 19088A   25359.87186861 -.00000003  00000+0  00000+0 0  9998",
        "tle_line2": "2 44850  65.4663  79.5196 0014428 250.7311 109.1604  2.13102067 47024"
      },
      "geometry": {
        "type": "Point",
        "coordinates": [
          79.22417393014472,
          -0.5681180008936194
        ]
      }
    },
    {
      "type": "Feature",
      "properties": {
        "norad_id": 45358,
        "name": "COSMOS 2545 (760)",
        "group": "glo-ops",
        "lat": -26.01802100806612,
        "lon": 151.93290333298378,
        "alt_km": 19112.035959397082,
        "timestamp": "2025-12-27T06:41:31.187693+00:00",
        "meta_object_name": "COSMOS 2545 (760)",
        "meta_object_id": "2020-018A",
        "meta_epoch": "2025-12-26T01:37:18.289920",
        "meta_mean_motion": 2.13102654,
        "meta_eccentricity": 0.0011278,
        "meta_inclination": 64.4616,
        "meta_ra_of_asc_node": 318.5028,
        "meta_arg_of_pericenter": 250.7597,
        "meta_mean_anomaly": 109.1229,
        "meta_ephemeris_type": 0,
        "meta_classification_type": "U",
        "meta_norad_cat_id": 45358,
        "meta_element_set_no": 999,
        "meta_rev_at_epoch": 4497,
        "meta_bstar": 0,
        "meta_mean_motion_dot": -3.5e-07,
        "meta_mean_motion_ddot": 0,
        "tle_line1": "1 45358U 20018A   25360.06757280 -.00000035  00000+0  00000+0 0  9994",
        "tle_line2": "2 45358  64.4616 318.5028 0011278 250.7597 109.1229  2.13102654 44977"
      },
      "geometry": {
        "type": "Point",
        "coordinates": [
          151.93290333298378,
          -26.01802100806612
        ]
      }
    }
  ]
}